RADUGA 1 [-]            
1 08513U 75123A   22341.85776683  .00000010  00000+0  00000+0 0  9996
2 08513   6.1159 286.1893 0007217 223.5881 301.9300  1.00286589181908
RADUGA 2 [-]            
1 09416U 76092A   22341.87132514 -.00000158  00000+0  00000+0 0  9990
2 09416   6.7801 288.1980 0027414   0.8485 185.0990  1.00288767116439
RADUGA 3 [-]            
1 10159U 77071A   22341.92548953 -.00000084  00000+0  00000+0 0  9996
2 10159   7.3971 290.8313 0009064 243.5524 313.8504  1.00187348164147
RADUGA 4 [-]            
1 10987U 78073A   22341.48973677  .00000111  00000+0  00000+0 0  9994
2 10987   8.0277 294.3987 0008563 358.5037  11.2484  1.00330960106690
RADUGA 5 [-]            
1 11343U 79035A   22341.92583819 -.00000115  00000+0  00000+0 0  9999
2 11343   8.4880 297.1911 0006212 176.9745  15.6921  1.00249793116414
RADUGA 6 [-]            
1 11708U 80016A   22341.87132514 -.00000198  00000+0  00000+0 0  9992
2 11708   8.8527 300.3055 0002802 211.8789 324.4859  1.00339394109257
RADUGA 7 [-]            
1 12003U 80081A   22341.22202267 -.00000178  00000+0  00000+0 0  9993
2 12003   9.0409 302.2864 0010087 268.5754 279.9891  1.00270664110393
RADUGA 8 [-]            
1 12351U 81027A   22341.77206701 -.00000266  00000+0  00000+0 0  9995
2 12351   9.3715 302.8569 0082057 232.8176 317.0522  1.00360552109623
RADUGA 9 [-]            
1 12618U 81069A   22341.87132514 -.00000163  00000+0  00000+0 0  9994
2 12618   9.5966 305.8661 0003321 159.6288   6.6313  1.00355163 34439
RADUGA 10 [-]           
1 12897U 81102A   22341.92688417 -.00000177  00000+0  00000+0 0  9990
2 12897   9.6831 306.8573 0005472 186.8365   2.0076  1.00268269104490
RADUGA 11 [-]           
1 13669U 82113A   22341.63899126 -.00000045  00000+0  00000+0 0  9994
2 13669  11.7569 320.7270 0038479 257.4318 323.6982  0.97707927108952
RADUGA 12 [-]           
1 13974U 83028A   22341.71996731 -.00000068  00000+0  00000+0 0  9993
2 13974  10.8494 316.7100 0001531 107.8336 343.5968  1.00294633156477
RADUGA 13 [-]           
1 14307U 83088A   22341.77483506 -.00000196  00000+0  00000+0 0  9999
2 14307  12.0107 322.2626 0014970  42.4795 134.9728  0.98175477106305
RADUGA 14 [-]           
1 14725U 84016A   22341.92653551 -.00000163  00000+0  00000+0 0  9995
2 14725  11.0658 320.5109 0004490 145.6391  27.3567  1.00253076105176
RADUGA 15 [-]           
1 15057U 84063A   22341.84348334 -.00000339  00000+0  00000+0 0  9992
2 15057  11.1905 321.4981 0005322 164.0411  23.7570  1.00260987128192
RADUGA 16 [-]           
1 15946U 85070A   22341.66293358  .00000122  00000+0  00000+0 0  9992
2 15946  11.6689 326.1917 0002020 176.1419  13.3322  1.00326821109311
RADUGA 17 [-]           
1 16250U 85107A   22341.64236646  .00000028  00000+0  00000+0 0  9992
2 16250  11.7957 327.5975 0013578 188.5996  28.8583  1.00130931138772
RADUGA 18 [-]           
1 16497U 86007A   22341.62937507 -.00000034  00000+0  00000+0 0  9995
2 16497  12.6109 330.3209 0075144 168.5953 196.6100  0.98812686133149
RADUGA 19 [-]           
1 17046U 86082A   22341.59906536 -.00000043  00000+0  00000+0 0  9993
2 17046  13.0535 334.2742 0013120 154.2060  20.6759  0.98459973130239
RADUGA 20 [-]           
1 17611U 87028A   22341.12625122 -.00000115  00000+0  00000+0 0  9990
2 17611  15.0784 337.7822 0030521 141.9984  28.4621  0.95961469125956
RADUGA 21 [-]           
1 18631U 87100A   22341.61807484  .00000090  00000+0  00000+0 0  9992
2 18631  13.1475 335.0693 0003465 137.8575  44.1722  1.00332085128176
RADUGA 22 [-]           
1 19596U 88095A   22341.82893866 -.00000311  00000+0  00000+0 0  9996
2 19596  13.1457 339.4012 0007530 145.1470 352.6626  1.00175668108746
RADUGA 23 [-]           
1 19928U 89030A   22341.75049372 -.00000054  00000+0  00000+0 0  9996
2 19928  13.3022 341.2246 0021680 167.8209 265.4304  1.00363920121949
RADUGA-1 1 [-]          
1 20083U 89048A   22341.66310792 -.00000089  00000+0  00000+0 0  9994
2 20083  14.0664 344.3057 0022473 118.9490  52.9030  0.98709495118563
RADUGA 24 [-]           
1 20367U 89098A   22341.68389493  .00000107  00000+0  00000+0 0  9990
2 20367  13.8864 343.4678 0002091 149.5351 236.7893  1.00245434120122
RADUGA 25 [-]           
1 20499U 90016A   22342.03907019 -.00000121  00000+0  00000+0 0  9995
2 20499  13.6571 344.1368 0005241 150.9762 215.5906  1.00164989120043
RADUGA 26 [-]           
1 21016U 90112A   22341.82234249 -.00000181  00000+0  00000+0 0  9998
2 21016  13.9857 347.3912 0007151  97.8675   9.4377  1.00319587117351
RADUGA-1 2 [-]          
1 21038U 90116A   22341.72159002  .00000059  00000+0  00000+0 0  9991
2 21038  14.0248 347.4624 0008540 106.8750 296.5506  1.00307862 34433
RADUGA 27 [-]           
1 21132U 91014A   22341.19808274  .00000125  00000+0  00000+0 0  9991
2 21132  14.5332 346.9740 0003264 106.4700  81.9138  1.00323441116393
RADUGA 28 [-]           
1 21821U 91087A   22341.73546309 -.00000034  00000+0  00000+0 0  9994
2 21821  14.3144 350.7324 0007321 131.7765 288.0127  1.00182961113416
RADUGA 29 [-]           
1 22557U 93013A   22341.75049359 -.00000058  00000+0  00000+0 0  9993
2 22557  14.5395 354.9084 0006755 123.0689 295.8981  1.00384670108779
RADUGA 30 [-]           
1 22836U 93062A   22341.73812784 -.00000066  00000+0  00000+0 0  9994
2 22836  14.5890 356.8854 0001175 350.2360  65.9978  1.00262660 33094
RADUGA-1 3 [-]          
1 22981U 94008A   22341.65552733 -.00000167  00000+0  00000+0 0  9994
2 22981  14.6716 358.0335 0003537 115.5777 281.4179  1.00217066105570
RADUGA 31 [-]           
1 23010U 94012A   22341.65472845 -.00000178  00000+0  00000+0 0  9990
2 23010  14.6418 358.0311 0005491 100.8905 294.1977  1.00338728105440
RADUGA 32 [-]           
1 23448U 94087A   22341.64954426 -.00000077  00000+0  00000+0 0  9994
2 23448  14.6364   0.7510 0005264 203.5963 177.9069  1.00263259119979
RADUGA-1 4 [-]          
1 25642U 99010A   22341.68700553  .00000041  00000+0  00000+0 0  9997
2 25642  15.2576  12.2880 0002530 241.9755 125.3392  1.00343643 87049
RADUGA-1 5 [-]          
1 26477U 00049A   22341.72394308  .00000065  00000+0  00000+0 0  9996
2 26477  13.2277  17.2702 0004859  69.0999 304.3434  1.00320784 81518
RADUGA-1 6 [-]          
1 26936U 01045A   22341.40265895 -.00000168  00000+0  00000+0 0  9991
2 26936  13.4228  23.6238 0016463 168.2787   3.5381  0.97745687 76018
RADUGA-1 7 [-]          
1 28194U 04010A   22341.82930755 -.00000333  00000+0  00000+0 0  9998
2 28194  12.1687  30.4218 0002266 182.5363 268.1357  1.00189117 68513
RADUGA-1M 1 [-]         
1 32373U 07058A   22340.97887926 -.00000088  00000+0  00000+0 0  9990
2 32373   7.2775  62.8394 0000943 358.8607  14.3531  0.99399778 39597
RADUGA-1 8 [-]          
1 34264U 09010A   22341.87493385  .00000000  00000+0  00000+0 0  9996
2 34264   9.5666  52.7738 0013580   4.4977 158.6579  0.99830391 50315
RADUGA-1M 2 [+]         
1 36358U 10002A   22341.87132514 -.00000170  00000+0  00000+0 0  9998
2 36358   0.2847  99.7683 0003843 208.3547 167.1829  1.00274046 37184
RADUGA-1M 3 [+]         
1 39375U 13062A   22341.93174229  .00000169  00000+0  00000+0 0  9992
2 39375   2.6747  87.7938 0002101 128.1364 231.1756  1.00274249 33219
